GEOSCAN 3 (RS92S3)      
1 64893U 25155T   26165.58596109  .00016870  00000+0  49340-3 0  9995
2 64893  97.4532 135.4326 0006385 168.5758 191.5632 15.35319487 80458
INNOSAT 3 (RS92S0)      
1 64894U 25155U   26165.59020250  .00032817  00000+0  72767-3 0  9994
2 64894  97.4481 137.0242 0006074 157.5789 202.5725 15.43663564 80569
KNACKSAT-2              
1 67683U 98067XZ  26164.69872930  .00046958  00000+0  57858-3 0  9990
2 67683  51.6303 312.0209 0009611 199.6131 160.4494 15.59677165 19734
