OBJECT_NAME,OBJECT_ID,EPOCH,MEAN_MOTION,ECCENTRICITY,INCLINATION,RA_OF_ASC_NODE,ARG_OF_PERICENTER,MEAN_ANOMALY,EPHEMERIS_TYPE,CLASSIFICATION_TYPE,NORAD_CAT_ID,ELEMENT_SET_NO,REV_AT_EPOCH,BSTAR,MEAN_MOTION_DOT,MEAN_MOTION_DDOT
GEOSCAN 3 (RS92S3),2025-155T,2026-06-14T14:03:47.038176,15.35319487,.00063858,97.4532,135.4326,168.5758,191.5632,0,U,64893,999,8045,.49339986E-3,.1687E-3,0
INNOSAT 3 (RS92S0),2025-155U,2026-06-14T14:09:53.496000,15.43663564,.00060743,97.4481,137.0242,157.5789,202.5725,0,U,64894,999,8056,.72766626E-3,.32817E-3,0
KNACKSAT-2,1998-067XZ,2026-06-13T16:46:10.211520,15.59677165,.00096113,51.6303,312.0209,199.6131,160.4494,0,U,67683,999,1973,.57858406E-3,.46958E-3,0
